CCSDS_OMM_VERS = 2.0
CREATION_DATE  = 
ORIGINATOR     = 

OBJECT_NAME    = STARLINK-37123
OBJECT_ID      = 2026-055P
CENTER_NAME    = EARTH
REF_FRAME      = TEME
TIME_SYSTEM    = UTC
MEAN_ELEMENT_THEORY = SGP/SGP4

EPOCH          = 2026-03-26T20:00:03.000384
MEAN_MOTION    = 16.00805608
ECCENTRICITY   = .0000663
INCLINATION    = 53.1590
RA_OF_ASC_NODE = 251.8828
ARG_OF_PERICENTER = 65.5628
MEAN_ANOMALY   = 23.9075

EPHEMERIS_TYPE = 0
CLASSIFICATION_TYPE = U
NORAD_CAT_ID   = 68275
ELEMENT_SET_NO = 999
REV_AT_EPOCH   = 239
BSTAR          = -.17235E-2
MEAN_MOTION_DOT = -.949912E-2
MEAN_MOTION_DDOT = .30536E-3

CCSDS_OMM_VERS = 2.0
CREATION_DATE  = 
ORIGINATOR     = 

OBJECT_NAME    = STARLINK-37125
OBJECT_ID      = 2026-055Q
CENTER_NAME    = EARTH
REF_FRAME      = TEME
TIME_SYSTEM    = UTC
MEAN_ELEMENT_THEORY = SGP/SGP4

EPOCH          = 2026-03-26T20:00:03.000384
MEAN_MOTION    = 16.00970804
ECCENTRICITY   = .0000702
INCLINATION    = 53.1589
RA_OF_ASC_NODE = 251.8768
ARG_OF_PERICENTER = 58.7583
MEAN_ANOMALY   = 33.6325

EPHEMERIS_TYPE = 0
CLASSIFICATION_TYPE = U
NORAD_CAT_ID   = 68276
ELEMENT_SET_NO = 999
REV_AT_EPOCH   = 239
BSTAR          = -.16821E-2
MEAN_MOTION_DOT = -.93617E-2
MEAN_MOTION_DDOT = .29797E-3

CCSDS_OMM_VERS = 2.0
CREATION_DATE  = 
ORIGINATOR     = 

OBJECT_NAME    = STARLINK-36989
OBJECT_ID      = 2026-055R
CENTER_NAME    = EARTH
REF_FRAME      = TEME
TIME_SYSTEM    = UTC
MEAN_ELEMENT_THEORY = SGP/SGP4

EPOCH          = 2026-03-26T20:00:03.000384
MEAN_MOTION    = 16.01410266
ECCENTRICITY   = .0000602
INCLINATION    = 53.1589
RA_OF_ASC_NODE = 251.8615
ARG_OF_PERICENTER = 74.6384
MEAN_ANOMALY   = 25.1656

EPHEMERIS_TYPE = 0
CLASSIFICATION_TYPE = U
NORAD_CAT_ID   = 68277
ELEMENT_SET_NO = 999
REV_AT_EPOCH   = 239
BSTAR          = -.16366E-2
MEAN_MOTION_DOT = -.934428E-2
MEAN_MOTION_DDOT = .29841E-3

CCSDS_OMM_VERS = 2.0
CREATION_DATE  = 
ORIGINATOR     = 

OBJECT_NAME    = STARLINK-36982
OBJECT_ID      = 2026-055S
CENTER_NAME    = EARTH
REF_FRAME      = TEME
TIME_SYSTEM    = UTC
MEAN_ELEMENT_THEORY = SGP/SGP4

EPOCH          = 2026-03-26T20:00:03.000384
MEAN_MOTION    = 16.01277217
ECCENTRICITY   = .0000602
INCLINATION    = 53.1590
RA_OF_ASC_NODE = 251.8668
ARG_OF_PERICENTER = 64.9301
MEAN_ANOMALY   = 32.5845

EPHEMERIS_TYPE = 0
CLASSIFICATION_TYPE = U
NORAD_CAT_ID   = 68278
ELEMENT_SET_NO = 999
REV_AT_EPOCH   = 239
BSTAR          = -.16578E-2
MEAN_MOTION_DOT = -.93914E-2
MEAN_MOTION_DDOT = .30069E-3

CCSDS_OMM_VERS = 2.0
CREATION_DATE  = 
ORIGINATOR     = 

OBJECT_NAME    = STARLINK-36934
OBJECT_ID      = 2026-055T
CENTER_NAME    = EARTH
REF_FRAME      = TEME
TIME_SYSTEM    = UTC
MEAN_ELEMENT_THEORY = SGP/SGP4

EPOCH          = 2026-03-26T20:00:03.000384
MEAN_MOTION    = 16.01144772
ECCENTRICITY   = .0000711
INCLINATION    = 53.1590
RA_OF_ASC_NODE = 251.8715
ARG_OF_PERICENTER = 63.2683
MEAN_ANOMALY   = 31.9325

EPHEMERIS_TYPE = 0
CLASSIFICATION_TYPE = U
NORAD_CAT_ID   = 68279
ELEMENT_SET_NO = 999
REV_AT_EPOCH   = 239
BSTAR          = -.16878E-2
MEAN_MOTION_DOT = -.948753E-2
MEAN_MOTION_DDOT = .30582E-3

CCSDS_OMM_VERS = 2.0
CREATION_DATE  = 
ORIGINATOR     = 

OBJECT_NAME    = STARLINK-37070
OBJECT_ID      = 2026-055U
CENTER_NAME    = EARTH
REF_FRAME      = TEME
TIME_SYSTEM    = UTC
MEAN_ELEMENT_THEORY = SGP/SGP4

EPOCH          = 2026-03-26T20:00:03.000384
MEAN_MOTION    = 16.01587422
ECCENTRICITY   = .000063
INCLINATION    = 53.1590
RA_OF_ASC_NODE = 251.8557
ARG_OF_PERICENTER = 72.6405
MEAN_ANOMALY   = 29.9798

EPHEMERIS_TYPE = 0
CLASSIFICATION_TYPE = U
NORAD_CAT_ID   = 68280
ELEMENT_SET_NO = 999
REV_AT_EPOCH   = 239
BSTAR          = -.16392E-2
MEAN_MOTION_DOT = -.945536E-2
MEAN_MOTION_DDOT = .30544E-3

CCSDS_OMM_VERS = 2.0
CREATION_DATE  = 
ORIGINATOR     = 

OBJECT_NAME    = STARLINK-37134
OBJECT_ID      = 2026-055V
CENTER_NAME    = EARTH
REF_FRAME      = TEME
TIME_SYSTEM    = UTC
MEAN_ELEMENT_THEORY = SGP/SGP4

EPOCH          = 2026-03-26T20:00:03.000384
MEAN_MOTION    = 16.01887638
ECCENTRICITY   = .0000618
INCLINATION    = 53.1587
RA_OF_ASC_NODE = 251.8454
ARG_OF_PERICENTER = 62.7987
MEAN_ANOMALY   = 44.8385

EPHEMERIS_TYPE = 0
CLASSIFICATION_TYPE = U
NORAD_CAT_ID   = 68281
ELEMENT_SET_NO = 999
REV_AT_EPOCH   = 239
BSTAR          = -.15902E-2
MEAN_MOTION_DOT = -.933629E-2
MEAN_MOTION_DDOT = .29952E-3

CCSDS_OMM_VERS = 2.0
CREATION_DATE  = 
ORIGINATOR     = 

OBJECT_NAME    = STARLINK-37160
OBJECT_ID      = 2026-055W
CENTER_NAME    = EARTH
REF_FRAME      = TEME
TIME_SYSTEM    = UTC
MEAN_ELEMENT_THEORY = SGP/SGP4

EPOCH          = 2026-03-26T20:00:03.000384
MEAN_MOTION    = 16.01743216
ECCENTRICITY   = .0000586
INCLINATION    = 53.1589
RA_OF_ASC_NODE = 251.8509
ARG_OF_PERICENTER = 66.4218
MEAN_ANOMALY   = 38.8312

EPHEMERIS_TYPE = 0
CLASSIFICATION_TYPE = U
NORAD_CAT_ID   = 68282
ELEMENT_SET_NO = 999
REV_AT_EPOCH   = 239
BSTAR          = -.16071E-2
MEAN_MOTION_DOT = -.935589E-2
MEAN_MOTION_DDOT = .30018E-3

CCSDS_OMM_VERS = 2.0
CREATION_DATE  = 
ORIGINATOR     = 

OBJECT_NAME    = STARLINK-37124
OBJECT_ID      = 2026-055X
CENTER_NAME    = EARTH
REF_FRAME      = TEME
TIME_SYSTEM    = UTC
MEAN_ELEMENT_THEORY = SGP/SGP4

EPOCH          = 2026-03-26T20:00:03.000384
MEAN_MOTION    = 16.02015848
ECCENTRICITY   = .0000633
INCLINATION    = 53.1589
RA_OF_ASC_NODE = 251.8415
ARG_OF_PERICENTER = 65.1747
MEAN_ANOMALY   = 44.5297

EPHEMERIS_TYPE = 0
CLASSIFICATION_TYPE = U
NORAD_CAT_ID   = 68283
ELEMENT_SET_NO = 999
REV_AT_EPOCH   = 239
BSTAR          = -.15871E-2
MEAN_MOTION_DOT = -.938793E-2
MEAN_MOTION_DDOT = .30295E-3

CCSDS_OMM_VERS = 2.0
CREATION_DATE  = 
ORIGINATOR     = 

OBJECT_NAME    = STARLINK-37159
OBJECT_ID      = 2026-055Y
CENTER_NAME    = EARTH
REF_FRAME      = TEME
TIME_SYSTEM    = UTC
MEAN_ELEMENT_THEORY = SGP/SGP4

EPOCH          = 2026-03-26T20:00:03.000384
MEAN_MOTION    = 16.02173141
ECCENTRICITY   = .0000683
INCLINATION    = 53.1590
RA_OF_ASC_NODE = 251.8361
ARG_OF_PERICENTER = 67.2083
MEAN_ANOMALY   = 45.0449

EPHEMERIS_TYPE = 0
CLASSIFICATION_TYPE = U
NORAD_CAT_ID   = 68284
ELEMENT_SET_NO = 999
REV_AT_EPOCH   = 239
BSTAR          = -.15654E-2
MEAN_MOTION_DOT = -.934614E-2
MEAN_MOTION_DDOT = .30105E-3

CCSDS_OMM_VERS = 2.0
CREATION_DATE  = 
ORIGINATOR     = 

OBJECT_NAME    = STARLINK-36725
OBJECT_ID      = 2026-055Z
CENTER_NAME    = EARTH
REF_FRAME      = TEME
TIME_SYSTEM    = UTC
MEAN_ELEMENT_THEORY = SGP/SGP4

EPOCH          = 2026-03-26T20:00:03.000384
MEAN_MOTION    = 16.02293974
ECCENTRICITY   = .0000619
INCLINATION    = 53.1586
RA_OF_ASC_NODE = 251.8315
ARG_OF_PERICENTER = 65.2986
MEAN_ANOMALY   = 48.9728

EPHEMERIS_TYPE = 0
CLASSIFICATION_TYPE = U
NORAD_CAT_ID   = 68285
ELEMENT_SET_NO = 999
REV_AT_EPOCH   = 239
BSTAR          = -.15401E-2
MEAN_MOTION_DOT = -.926177E-2
MEAN_MOTION_DDOT = .29656E-3

CCSDS_OMM_VERS = 2.0
CREATION_DATE  = 
ORIGINATOR     = 

OBJECT_NAME    = STARLINK-36998
OBJECT_ID      = 2026-055AA
CENTER_NAME    = EARTH
REF_FRAME      = TEME
TIME_SYSTEM    = UTC
MEAN_ELEMENT_THEORY = SGP/SGP4

EPOCH          = 2026-03-26T20:00:03.000384
MEAN_MOTION    = 16.02618888
ECCENTRICITY   = .000058
INCLINATION    = 53.1594
RA_OF_ASC_NODE = 251.8222
ARG_OF_PERICENTER = 71.3499
MEAN_ANOMALY   = 48.0001

EPHEMERIS_TYPE = 0
CLASSIFICATION_TYPE = U
NORAD_CAT_ID   = 68286
ELEMENT_SET_NO = 999
REV_AT_EPOCH   = 239
BSTAR          = -.15141E-2
MEAN_MOTION_DOT = -.928173E-2
MEAN_MOTION_DDOT = .2988E-3

