STARLINK-37123          
1 68275U 26055P   26085.83336806 -.00949912  30536-3 -17235-2 0  9990
2 68275  53.1590 251.8828 0000663  65.5628  23.9075 16.00805608  2398
STARLINK-37125          
1 68276U 26055Q   26085.83336806 -.00936170  29797-3 -16821-2 0  9990
2 68276  53.1589 251.8768 0000702  58.7583  33.6325 16.00970804  2395
STARLINK-36989          
1 68277U 26055R   26085.83336806 -.00934428  29841-3 -16366-2 0  9999
2 68277  53.1589 251.8615 0000602  74.6384  25.1656 16.01410266  2397
STARLINK-36982          
1 68278U 26055S   26085.83336806 -.00939140  30069-3 -16578-2 0  9995
2 68278  53.1590 251.8668 0000602  64.9301  32.5845 16.01277217  2398
STARLINK-36934          
1 68279U 26055T   26085.83336806 -.00948753  30582-3 -16878-2 0  9999
2 68279  53.1590 251.8715 0000711  63.2683  31.9325 16.01144772  2393
STARLINK-37070          
1 68280U 26055U   26085.83336806 -.00945536  30544-3 -16392-2 0  9996
2 68280  53.1590 251.8557 0000630  72.6405  29.9798 16.01587422  2399
STARLINK-37134          
1 68281U 26055V   26085.83336806 -.00933629  29952-3 -15902-2 0  9994
2 68281  53.1587 251.8454 0000618  62.7987  44.8385 16.01887638  2393
STARLINK-37160          
1 68282U 26055W   26085.83336806 -.00935589  30018-3 -16071-2 0  9995
2 68282  53.1589 251.8509 0000586  66.4218  38.8312 16.01743216  2395
STARLINK-37124          
1 68283U 26055X   26085.83336806 -.00938793  30295-3 -15871-2 0  9990
2 68283  53.1589 251.8415 0000633  65.1747  44.5297 16.02015848  2398
STARLINK-37159          
1 68284U 26055Y   26085.83336806 -.00934614  30105-3 -15654-2 0  9998
2 68284  53.1590 251.8361 0000683  67.2083  45.0449 16.02173141  2398
STARLINK-36725          
1 68285U 26055Z   26085.83336806 -.00926177  29656-3 -15401-2 0  9993
2 68285  53.1586 251.8315 0000619  65.2986  48.9728 16.02293974  2391
STARLINK-36998          
1 68286U 26055AA  26085.83336806 -.00928173  29880-3 -15141-2 0  9992
2 68286  53.1594 251.8222 0000580  71.3499  48.0001 16.02618888  2392
